{
  "type": "FeatureCollection",
  "features": [
    {
      "type": "Feature",
      "properties": {
        "norad_id": 30594,
        "name": "FENGYUN 1C DEB",
        "group": "fengyun-1c-debris",
        "lat": 22.550577671233803,
        "lon": 26.496727693281507,
        "alt_km": 964.8408956892417,
        "timestamp": "2025-12-12T11:38:31.689401+00:00",
        "meta_object_name": "FENGYUN 1C DEB",
        "meta_object_id": "1999-025ALZ",
        "meta_epoch": "2025-12-10T13:08:55.884192",
        "meta_mean_motion": 14.17337284,
        "meta_eccentricity": 0.0193492,
        "meta_inclination": 99.1513,
        "meta_ra_of_asc_node": 200.6638,
        "meta_arg_of_pericenter": 322.5898,
        "meta_mean_anomaly": 36.1934,
        "meta_ephemeris_type": 0,
        "meta_classification_type": "U",
        "meta_norad_cat_id": 30594,
        "meta_element_set_no": 999,
        "meta_rev_at_epoch": 97548,
        "meta_bstar": 0.00028585,
        "meta_mean_motion_dot": 6.45e-06,
        "meta_mean_motion_ddot": 0,
        "tle_line1": "1 30594U 99025ALZ 25344.54786903  .00000645  00000+0  28585-3 0  9991",
        "tle_line2": "2 30594  99.1513 200.6638 0193492 322.5898  36.1934 14.17337284975480"
      },
      "geometry": {
        "type": "Point",
        "coordinates": [
          26.496727693281507,
          22.550577671233803
        ]
      }
    },
    {
      "type": "Feature",
      "properties": {
        "norad_id": 30596,
        "name": "FENGYUN 1C DEB",
        "group": "fengyun-1c-debris",
        "lat": 68.75312462967457,
        "lon": -173.41427624562198,
        "alt_km": 947.4818805688683,
        "timestamp": "2025-12-12T11:38:31.689411+00:00",
        "meta_object_name": "FENGYUN 1C DEB",
        "meta_object_id": "1999-025AMB",
        "meta_epoch": "2025-12-11T23:39:44.790048",
        "meta_mean_motion": 14.34358175,
        "meta_eccentricity": 0.0247317,
        "meta_inclination": 98.4135,
        "meta_ra_of_asc_node": 343.7252,
        "meta_arg_of_pericenter": 291.3462,
        "meta_mean_anomaly": 122.1897,
        "meta_ephemeris_type": 0,
        "meta_classification_type": "U",
        "meta_norad_cat_id": 30596,
        "meta_element_set_no": 999,
        "meta_rev_at_epoch": 98550,
        "meta_bstar": 0.00064093,
        "meta_mean_motion_dot": 2.49e-05,
        "meta_mean_motion_ddot": 0,
        "tle_line1": "1 30596U 99025AMB 25345.98593507  .00002490  00000+0  64093-3 0  9992",
        "tle_line2": "2 30596  98.4135 343.7252 0247317 291.3462 122.1897 14.34358175985500"
      },
      "geometry": {
        "type": "Point",
        "coordinates": [
          -173.41427624562198,
          68.75312462967457
        ]
      }
    },
    {
      "type": "Feature",
      "properties": {
        "norad_id": 30597,
        "name": "FENGYUN 1C DEB",
        "group": "fengyun-1c-debris",
        "lat": -65.21550436089036,
        "lon": -57.155133492754494,
        "alt_km": 617.5718854177248,
        "timestamp": "2025-12-12T11:38:31.689421+00:00",
        "meta_object_name": "FENGYUN 1C DEB",
        "meta_object_id": "1999-025AMC",
        "meta_epoch": "2025-12-12T02:17:18.481056",
        "meta_mean_motion": 14.9233571,
        "meta_eccentricity": 0.0045127,
        "meta_inclination": 98.939,
        "meta_ra_of_asc_node": 282.472,
        "meta_arg_of_pericenter": 165.0802,
        "meta_mean_anomaly": 195.1756,
        "meta_ephemeris_type": 0,
        "meta_classification_type": "U",
        "meta_norad_cat_id": 30597,
        "meta_element_set_no": 999,
        "meta_rev_at_epoch": 98527,
        "meta_bstar": 0.0063427,
        "meta_mean_motion_dot": 0.00066643,
        "meta_mean_motion_ddot": 0,
        "tle_line1": "1 30597U 99025AMC 25346.09535279  .00066643  00000+0  63427-2 0  9997",
        "tle_line2": "2 30597  98.9390 282.4720 0045127 165.0802 195.1756 14.92335710985270"
      },
      "geometry": {
        "type": "Point",
        "coordinates": [
          -57.155133492754494,
          -65.21550436089036
        ]
      }
    },
    {
      "type": "Feature",
      "properties": {
        "norad_id": 30599,
        "name": "FENGYUN 1C DEB",
        "group": "fengyun-1c-debris",
        "lat": 81.32107868255065,
        "lon": -84.58868708913893,
        "alt_km": 863.0977838603958,
        "timestamp": "2025-12-12T11:38:31.689431+00:00",
        "meta_object_name": "FENGYUN 1C DEB",
        "meta_object_id": "1999-025AME",
        "meta_epoch": "2025-12-11T23:23:49.149024",
        "meta_mean_motion": 14.1968506,
        "meta_eccentricity": 0.030237,
        "meta_inclination": 98.6043,
        "meta_ra_of_asc_node": 357.6186,
        "meta_arg_of_pericenter": 346.9957,
        "meta_mean_anomaly": 12.3545,
        "meta_ephemeris_type": 0,
        "meta_classification_type": "U",
        "meta_norad_cat_id": 30599,
        "meta_element_set_no": 999,
        "meta_rev_at_epoch": 97156,
        "meta_bstar": 0.0011904,
        "meta_mean_motion_dot": 3.933e-05,
        "meta_mean_motion_ddot": 0,
        "tle_line1": "1 30599U 99025AME 25345.97487441  .00003933  00000+0  11904-2 0  9998",
        "tle_line2": "2 30599  98.6043 357.6186 0302370 346.9957  12.3545 14.19685060971560"
      },
      "geometry": {
        "type": "Point",
        "coordinates": [
          -84.58868708913893,
          81.32107868255065
        ]
      }
    },
    {
      "type": "Feature",
      "properties": {
        "norad_id": 30600,
        "name": "FENGYUN 1C DEB",
        "group": "fengyun-1c-debris",
        "lat": -17.630856486143003,
        "lon": 108.56392766346623,
        "alt_km": 716.9636672679744,
        "timestamp": "2025-12-12T11:38:31.689441+00:00",
        "meta_object_name": "FENGYUN 1C DEB",
        "meta_object_id": "1999-025AMF",
        "meta_epoch": "2025-12-11T19:19:12.330048",
        "meta_mean_motion": 14.07471877,
        "meta_eccentricity": 0.03279243,
        "meta_inclination": 98.387,
        "meta_ra_of_asc_node": 290.6185,
        "meta_arg_of_pericenter": 250.0823,
        "meta_mean_anomaly": 106.4744,
        "meta_ephemeris_type": 0,
        "meta_classification_type": "U",
        "meta_norad_cat_id": 30600,
        "meta_element_set_no": 999,
        "meta_rev_at_epoch": 94419,
        "meta_bstar": 0.0053072787,
        "meta_mean_motion_dot": 0.00014603,
        "meta_mean_motion_ddot": 0,
        "tle_line1": "1 30600U 99025AMF 25345.80500382  .00014603  00000+0  53073-2 0  9992",
        "tle_line2": "2 30600  98.3870 290.6185 0327924 250.0823 106.4744 14.07471877944193"
      },
      "geometry": {
        "type": "Point",
        "coordinates": [
          108.56392766346623,
          -17.630856486143003
        ]
      }
    },
    {
      "type": "Feature",
      "properties": {
        "norad_id": 30602,
        "name": "FENGYUN 1C DEB",
        "group": "fengyun-1c-debris",
        "lat": 44.296293170202716,
        "lon": 89.26065303245107,
        "alt_km": 583.2680589749007,
        "timestamp": "2025-12-12T11:38:31.689451+00:00",
        "meta_object_name": "FENGYUN 1C DEB",
        "meta_object_id": "1999-025AMH",
        "meta_epoch": "2025-12-11T17:27:26.926272",
        "meta_mean_motion": 14.91023287,
        "meta_eccentricity": 0.00107711,
        "meta_inclination": 99.0334,
        "meta_ra_of_asc_node": 259.4642,
        "meta_arg_of_pericenter": 122.6064,
        "meta_mean_anomaly": 267.442,
        "meta_ephemeris_type": 0,
        "meta_classification_type": "U",
        "meta_norad_cat_id": 30602,
        "meta_element_set_no": 999,
        "meta_rev_at_epoch": 97790,
        "meta_bstar": 0.0096393438,
        "meta_mean_motion_dot": 0.00096693,
        "meta_mean_motion_ddot": 0,
        "tle_line1": "1 30602U 99025AMH 25345.72739498  .00096693  00000+0  96393-2 0  9998",
        "tle_line2": "2 30602  99.0334 259.4642 0010771 122.6064 267.4420 14.91023287977904"
      },
      "geometry": {
        "type": "Point",
        "coordinates": [
          89.26065303245107,
          44.296293170202716
        ]
      }
    },
    {
      "type": "Feature",
      "properties": {
        "norad_id": 30603,
        "name": "FENGYUN 1C DEB",
        "group": "fengyun-1c-debris",
        "lat": 7.259998007559977,
        "lon": -169.49291862585102,
        "alt_km": 838.3845641858006,
        "timestamp": "2025-12-12T11:38:31.689461+00:00",
        "meta_object_name": "FENGYUN 1C DEB",
        "meta_object_id": "1999-025AMJ",
        "meta_epoch": "2025-12-12T00:40:00.381216",
        "meta_mean_motion": 13.84117802,
        "meta_eccentricity": 0.0183351,
        "meta_inclination": 98.4099,
        "meta_ra_of_asc_node": 9.0175,
        "meta_arg_of_pericenter": 207.2842,
        "meta_mean_anomaly": 208.9793,
        "meta_ephemeris_type": 0,
        "meta_classification_type": "U",
        "meta_norad_cat_id": 30603,
        "meta_element_set_no": 999,
        "meta_rev_at_epoch": 94866,
        "meta_bstar": 0.0018718,
        "meta_mean_motion_dot": 2.337e-05,
        "meta_mean_motion_ddot": 0,
        "tle_line1": "1 30603U 99025AMJ 25346.02778219  .00002337  00000+0  18718-2 0  9994",
        "tle_line2": "2 30603  98.4099   9.0175 0183351 207.2842 208.9793 13.84117802948667"
      },
      "geometry": {
        "type": "Point",
        "coordinates": [
          -169.49291862585102,
          7.259998007559977
        ]
      }
    }
  ]
}